{"type": "FeatureCollection", "features": [ {"type": "Feature", "properties": {"norad_id": 37791, "name": "RASAT", "group": "resource", "lat": 4.722546918678098, "lon": 63.92399753908919, "alt_km": 671.4791639051864, "timestamp": "2025-12-01T03:58:49.207270+00:00", "meta": {"OBJECT_NAME": "RASAT", "OBJECT_ID": "2011-044D", "EPOCH": "2025-11-30T20:24:26.352000", "MEAN_MOTION": 14.67881515, "ECCENTRICITY": 0.0021952, "INCLINATION": 98.066, "RA_OF_ASC_NODE": 64.2844, "ARG_OF_PERICENTER": 100.7539, "MEAN_ANOMALY": 37.942, "EPHEMERIS_TYPE": 0, "CLASSIFICATION_TYPE": "U", "NORAD_CAT_ID": 37791, "ELEMENT_SET_NO": 999, "REV_AT_EPOCH": 76408, "BSTAR": 0.00012337, "MEAN_MOTION_DOT": 6.59e-06, "MEAN_MOTION_DDOT": 0, "GROUP": "resource"}, "tle": {"line1": "1 37791U 11044D   25334.85030500  .00000659  00000+0  12337-3 0  9993", "line2": "2 37791  98.0660  64.2844 0021952 100.7539  37.9420 14.67881515764086"}}, "geometry": {"type": "Point", "coordinates": [63.92399753908919, 4.722546918678098]}}, {"type": "Feature", "properties": {"norad_id": 37841, "name": "SRMSAT", "group": "resource", "lat": 1.6197108324391563, "lon": -6.461740522845602, "alt_km": 843.3148105369673, "timestamp": "2025-12-01T03:58:49.207281+00:00", "meta": {"OBJECT_NAME": "SRMSAT", "OBJECT_ID": "2011-058D", "EPOCH": "2025-11-30T20:55:12.139392", "MEAN_MOTION": 14.11504916, "ECCENTRICITY": 0.0011761, "INCLINATION": 19.9697, "RA_OF_ASC_NODE": 179.7833, "ARG_OF_PERICENTER": 182.0519, "MEAN_ANOMALY": 295.1008, "EPHEMERIS_TYPE": 0, "CLASSIFICATION_TYPE": "U", "NORAD_CAT_ID": 37841, "ELEMENT_SET_NO": 999, "REV_AT_EPOCH": 72976, "BSTAR": 9.0875e-05, "MEAN_MOTION_DOT": 4.32e-06, "MEAN_MOTION_DDOT": 0, "GROUP": "resource"}, "tle": {"line1": "1 37841U 11058D   25334.87166828  .00000432  00000+0  90875-4 0  9992", "line2": "2 37841  19.9697 179.7833 0011761 182.0519 295.1008 14.11504916729764"}}, "geometry": {"type": "Point", "coordinates": [-6.461740522845602, 1.6197108324391563]}}, {"type": "Feature", "properties": {"norad_id": 38012, "name": "PLEIADES 1A", "group": "resource", "lat": -8.989278394579273, "lon": -133.19211140999778, "alt_km": 702.2638291752901, "timestamp": "2025-12-01T03:58:49.207293+00:00", "meta": {"OBJECT_NAME": "PLEIADES 1A", "OBJECT_ID": "2011-076F", "EPOCH": "2025-11-30T21:07:55.391808", "MEAN_MOTION": 14.58542348, "ECCENTRICITY": 0.0001444, "INCLINATION": 98.1838, "RA_OF_ASC_NODE": 47.8314, "ARG_OF_PERICENTER": 82.5801, "MEAN_ANOMALY": 48.9779, "EPHEMERIS_TYPE": 0, "CLASSIFICATION_TYPE": "U", "NORAD_CAT_ID": 38012, "ELEMENT_SET_NO": 999, "REV_AT_EPOCH": 74308, "BSTAR": 0.00010084, "MEAN_MOTION_DOT": 4.23e-06, "MEAN_MOTION_DDOT": 0, "GROUP": "resource"}, "tle": {"line1": "1 38012U 11076F   25334.88050222  .00000423  00000+0  10084-3 0  9997", "line2": "2 38012  98.1838  47.8314 0001444  82.5801  48.9779 14.58542348743087"}}, "geometry": {"type": "Point", "coordinates": [-133.19211140999778, -8.989278394579273]}}, {"type": "Feature", "properties": {"norad_id": 38038, "name": "ZIYUAN 1-02C (ZY 1-02C)", "group": "resource", "lat": -50.95522761680973, "lon": -149.14934659969427, "alt_km": 769.7524220762571, "timestamp": "2025-12-01T03:58:49.207304+00:00", "meta": {"OBJECT_NAME": "ZIYUAN 1-02C (ZY 1-02C)", "OBJECT_ID": "2011-079A", "EPOCH": "2025-11-30T20:50:35.852928", "MEAN_MOTION": 14.37990143, "ECCENTRICITY": 0.0006637, "INCLINATION": 98.4349, "RA_OF_ASC_NODE": 41.1003, "ARG_OF_PERICENTER": 171.4865, "MEAN_ANOMALY": 321.5421, "EPHEMERIS_TYPE": 0, "CLASSIFICATION_TYPE": "U", "NORAD_CAT_ID": 38038, "ELEMENT_SET_NO": 999, "REV_AT_EPOCH": 73070, "BSTAR": 0.00018543, "MEAN_MOTION_DOT": 5.18e-06, "MEAN_MOTION_DDOT": 0, "GROUP": "resource"}, "tle": {"line1": "1 38038U 11079A   25334.86847052  .00000518  00000+0  18543-3 0  9994", "line2": "2 38038  98.4349  41.1003 0006637 171.4865 321.5421 14.37990143730700"}}, "geometry": {"type": "Point", "coordinates": [-149.14934659969427, -50.95522761680973]}}, {"type": "Feature", "properties": {"norad_id": 38046, "name": "ZIYUAN 3-1 (ZY 3-1)", "group": "resource", "lat": 41.191089113978464, "lon": 34.99788263677888, "alt_km": 364.3617358155534, "timestamp": "2025-12-01T03:58:49.207315+00:00", "meta": {"OBJECT_NAME": "ZIYUAN 3-1 (ZY 3-1)", "OBJECT_ID": "2012-001A", "EPOCH": "2025-11-30T20:08:14.891136", "MEAN_MOTION": 15.66381125, "ECCENTRICITY": 0.0002367, "INCLINATION": 97.1779, "RA_OF_ASC_NODE": 40.9967, "ARG_OF_PERICENTER": 39.9458, "MEAN_ANOMALY": 320.1976, "EPHEMERIS_TYPE": 0, "CLASSIFICATION_TYPE": "U", "NORAD_CAT_ID": 38046, "ELEMENT_SET_NO": 999, "REV_AT_EPOCH": 77310, "BSTAR": 0.00065899, "MEAN_MOTION_DOT": 0.00068592, "MEAN_MOTION_DDOT": 0, "GROUP": "resource"}, "tle": {"line1": "1 38046U 12001A   25334.83906124  .00068592  00000+0  65899-3 0  9994", "line2": "2 38046  97.1779  40.9967 0002367  39.9458 320.1976 15.66381125773108"}}, "geometry": {"type": "Point", "coordinates": [34.99788263677888, 41.191089113978464]}}, {"type": "Feature", "properties": {"norad_id": 38338, "name": "ARIRANG-3 (KOMPSAT-3)", "group": "resource", "lat": -44.312478877002945, "lon": -62.10649872662985, "alt_km": 692.198160113916, "timestamp": "2025-12-01T03:58:49.207328+00:00", "meta": {"OBJECT_NAME": "ARIRANG-3 (KOMPSAT-3)", "OBJECT_ID": "2012-025B", "EPOCH": "2025-11-30T19:58:14.456064", "MEAN_MOTION": 14.61686182, "ECCENTRICITY": 0.0006197, "INCLINATION": 98.3304, "RA_OF_ASC_NODE": 289.3331, "ARG_OF_PERICENTER": 15.6682, "MEAN_ANOMALY": 344.4709, "EPHEMERIS_TYPE": 0, "CLASSIFICATION_TYPE": "U", "NORAD_CAT_ID": 38338, "ELEMENT_SET_NO": 999, "REV_AT_EPOCH": 72236, "BSTAR": 0.00013885, "MEAN_MOTION_DOT": 6.43e-06, "MEAN_MOTION_DDOT": 0, "GROUP": "resource"}, "tle": {"line1": "1 38338U 12025B   25334.83211176  .00000643  00000+0  13885-3 0  9991", "line2": "2 38338  98.3304 289.3331 0006197  15.6682 344.4709 14.61686182722368"}}, "geometry": {"type": "Point", "coordinates": [-62.10649872662985, -44.312478877002945]}}, {"type": "Feature", "properties": {"norad_id": 38709, "name": "EXACTVIEW-1 (ADS-1B)", "group": "resource", "lat": 42.78075850367798, "lon": 74.91490628438237, "alt_km": 797.470823814233, "timestamp": "2025-12-01T03:58:49.207341+00:00", "meta": {"OBJECT_NAME": "EXACTVIEW-1 (ADS-1B)", "OBJECT_ID": "2012-039C", "EPOCH": "2025-11-30T17:39:57.447648", "MEAN_MOTION": 14.24899818, "ECCENTRICITY": 0.0011274, "INCLINATION": 98.9635, "RA_OF_ASC_NODE": 82.8747, "ARG_OF_PERICENTER": 28.4521, "MEAN_ANOMALY": 331.727, "EPHEMERIS_TYPE": 0, "CLASSIFICATION_TYPE": "U", "NORAD_CAT_ID": 38709, "ELEMENT_SET_NO": 999, "REV_AT_EPOCH": 69444, "BSTAR": 8.5635e-05, "MEAN_MOTION_DOT": 1.54e-06, "MEAN_MOTION_DDOT": 0, "GROUP": "resource"}, "tle": {"line1": "1 38709U 12039C   25334.73608157  .00000154  00000+0  85635-4 0  9996", "line2": "2 38709  98.9635  82.8747 0011274  28.4521 331.7270 14.24899818694446"}}, "geometry": {"type": "Point", "coordinates": [74.91490628438237, 42.78075850367798]}}, {"type": "Feature", "properties": {"norad_id": 38755, "name": "SPOT 6", "group": "resource", "lat": 67.71274584738364, "lon": -119.34891056672548, "alt_km": 690.439212030592, "timestamp": "2025-12-01T03:58:49.207352+00:00", "meta": {"OBJECT_NAME": "SPOT 6", "OBJECT_ID": "2012-047A", "EPOCH": "2025-11-30T19:14:32.348256", "MEAN_MOTION": 14.5858454, "ECCENTRICITY": 0.0001029, "INCLINATION": 98.1588, "RA_OF_ASC_NODE": 39.8051, "ARG_OF_PERICENTER": 98.8456, "MEAN_ANOMALY": 261.286, "EPHEMERIS_TYPE": 0, "CLASSIFICATION_TYPE": "U", "NORAD_CAT_ID": 38755, "ELEMENT_SET_NO": 999, "REV_AT_EPOCH": 70413, "BSTAR": 9.8111e-05, "MEAN_MOTION_DOT": 4.11e-06, "MEAN_MOTION_DDOT": 0, "GROUP": "resource"}, "tle": {"line1": "1 38755U 12047A   25334.80176329  .00000411  00000+0  98111-4 0  9994", "line2": "2 38755  98.1588  39.8051 0001029  98.8456 261.2860 14.58584540704131"}}, "geometry": {"type": "Point", "coordinates": [-119.34891056672548, 67.71274584738364]}}, {"type": "Feature", "properties": {"norad_id": 39019, "name": "PLEIADES 1B", "group": "resource", "lat": 11.852526492456331, "lon": 46.269689269235535, "alt_km": 698.6670429839251, "timestamp": "2025-12-01T03:58:49.207365+00:00", "meta": {"OBJECT_NAME": "PLEIADES 1B", "OBJECT_ID": "2012-068A", "EPOCH": "2025-11-28T00:11:28.841280", "MEAN_MOTION": 14.58591848, "ECCENTRICITY": 0.0001299, "INCLINATION": 98.181, "RA_OF_ASC_NODE": 44.8913, "ARG_OF_PERICENTER": 88.6876, "MEAN_ANOMALY": 271.4472, "EPHEMERIS_TYPE": 0, "CLASSIFICATION_TYPE": "U", "NORAD_CAT_ID": 39019, "ELEMENT_SET_NO": 999, "REV_AT_EPOCH": 69152, "BSTAR": 0.00011327, "MEAN_MOTION_DOT": 4.81e-06, "MEAN_MOTION_DDOT": 0, "GROUP": "resource"}, "tle": {"line1": "1 39019U 12068A   25332.00797270  .00000481  00000+0  11327-3 0  9995", "line2": "2 39019  98.1810  44.8913 0001299  88.6876 271.4472 14.58591848691527"}}, "geometry": {"type": "Point", "coordinates": [46.269689269235535, 11.852526492456331]}}, {"type": "Feature", "properties": {"norad_id": 39030, "name": "GOKTURK 2", "group": "resource", "lat": -69.55031463710925, "lon": -23.859600702443903, "alt_km": 652.1286789088554, "timestamp": "2025-12-01T03:58:49.207375+00:00", "meta": {"OBJECT_NAME": "GOKTURK 2", "OBJECT_ID": "2012-073A", "EPOCH": "2025-11-30T20:20:05.704800", "MEAN_MOTION": 14.75263774, "ECCENTRICITY": 7.89e-05, "INCLINATION": 97.6908, "RA_OF_ASC_NODE": 177.0851, "ARG_OF_PERICENTER": 88.8548, "MEAN_ANOMALY": 271.2753, "EPHEMERIS_TYPE": 0, "CLASSIFICATION_TYPE": "U", "NORAD_CAT_ID": 39030, "ELEMENT_SET_NO": 999, "REV_AT_EPOCH": 69526, "BSTAR": 0.00010751, "MEAN_MOTION_DOT": 6.8e-06, "MEAN_MOTION_DDOT": 0, "GROUP": "resource"}, "tle": {"line1": "1 39030U 12073A   25334.84728825  .00000680  00000+0  10751-3 0  9999", "line2": "2 39030  97.6908 177.0851 0000789  88.8548 271.2753 14.75263774695261"}}, "geometry": {"type": "Point", "coordinates": [-23.859600702443903, -69.55031463710925]}}]}